2026-05-17 03:52:23 | INFO | strands_evaluation.helper.logger | Logging to: log-kramabench/modes/openai_gpt-5.4-nano/search_d_results_i_pland_k5_skills_off/tasks-mini-kramabench/k-2-d-2-s-2/task_1.log
2026-05-17 03:52:27 | INFO | strands_evaluation.agent_with_mode | Starting task 1: Using TLE data fetched for Starlink satellites 58214, calculate the average rate...
2026-05-17 03:52:27 | INFO | strands_evaluation.agent_with_mode | ============================================================
2026-05-17 03:52:27 | INFO | strands_evaluation.agent_with_mode | NEW TASK: gpt-5.4-nano
2026-05-17 03:52:27 | DEBUG | strands_evaluation.agent_with_mode | QUESTION: Using TLE data fetched for Starlink satellites 58214, calculate the average rate of semi-major axis decay (km/day) for the Gannon storm (May 10-13, 2024) and the preceding quiet period (May 1-4, 2024). Use earth's gravitational paremeter mu = 398600.4418 km^3/s^2, earth radius 6371.0 km, and Kepler's law as a rough estimate of the semi-major axis length. Report in a pair of numbers: (average_quiet_rate_km_day, average_storm_rate_km_day). The tle files are located in input/space-track/, with format <NORAD_ID>_storm.csv and <NORAD_ID>_quiet.csv. Write your answer as [ANSWER].
2026-05-17 03:52:27 | INFO | strands_evaluation.agent_with_mode | ============================================================
2026-05-17 03:52:27 | INFO | strands_evaluation.agent_with_mode | Ablation modes active: search_tool=standard search_results=ideal agent_management=standard plan_skills=off
2026-05-17 03:52:27 | DEBUG | strands_evaluation.instrumentation.agent_plugins | Event loop initialized
2026-05-17 03:52:27 | INFO | strands_evaluation.instrumentation.agent_plugins | 
--- Turn 1 (elapsed: 0.0s) ---
2026-05-17 03:52:29 | DEBUG | strands_evaluation.instrumentation.agent_plugins | Model response #1 [stop_reason=tool_use]
2026-05-17 03:52:29 | DEBUG | strands_evaluation.instrumentation.agent_plugins | Model response #1 [role=assistant block=1 tool_use] plan({"plan_text": "1) Locate the Starlink TLE storm/quiet CSV files for NORAD 58214 under input/space-track/. 2) Download the two CSVs if needed and inspect schema (fields for epoch and mean motion or semi-major axis). 3) For each period (May 1-4 quiet; May 10-13 storm), compute semi-major axis a from Kepler using mean motion n: a=(mu/( (2πn/86400)^2 ))^(1/3). 4) Derive a time series across TLE epochs and fit/compute average daily decay rate as (a_start - a_end)/delta_days (or linear regression if more points). 5) Output (quiet_rate, storm_rate) as pair of numbers in brackets."}) [toolUseId=call_T5VGLDTsre1WwKa1dMrCaA3X]
2026-05-17 03:52:29 | INFO | strands_evaluation.instrumentation.agent_plugins | Executing: plan({"plan_text": "1) Locate the Starlink TLE storm/quiet CSV files for NORAD 58214 under input/space-track/. 2) Download the two CSVs if needed and inspect schema (fields for epoch and mean motion or semi-major axis). 3) For each period (May 1-4 quiet; May 10-13 storm), compute semi-major axis a from Kepler using mean motion n: a=(mu/( (2πn/86400)^2 ))^(1/3). 4) Derive a time series across TLE epochs and fit/compute average daily decay rate as (a_start - a_end)/delta_days (or linear regression if more points). 5) Output (quiet_rate, storm_rate) as pair of numbers in brackets."})
2026-05-17 03:52:29 | DEBUG | strands_evaluation.instrumentation.agent_plugins | Tool result: Plan recorded.
2026-05-17 03:52:29 | INFO | strands_evaluation.instrumentation.agent_plugins | 
--- Turn 2 (elapsed: 1.6s) ---
2026-05-17 03:52:29 | DEBUG | strands_evaluation.instrumentation.agent_plugins | Model response #2 [stop_reason=tool_use]
2026-05-17 03:52:29 | DEBUG | strands_evaluation.instrumentation.agent_plugins | Model response #2 [role=assistant block=1 tool_use] search_prefix({"prefixes": ["input/space-track/58214", "space-track/58214", "58214_"]}) [toolUseId=call_2grP7F03KLoxhyI4JmcDZsHC]
2026-05-17 03:52:29 | INFO | strands_evaluation.instrumentation.agent_plugins | Executing: search_prefix({"prefixes": ["input/space-track/58214", "space-track/58214", "58214_"]})
2026-05-17 03:52:31 | DEBUG | strands_evaluation.instrumentation.agent_plugins | Tool result: {"results": [], "results_by_prefix": {"input/space-track/58214": [], "space-track/58214": [], "58214_": []}, "count": 0, "prefixes": ["input/space-track/58214", "space-track/58214", "58214_"]}
2026-05-17 03:52:31 | INFO | strands_evaluation.instrumentation.agent_plugins | 
--- Turn 3 (elapsed: 4.0s) ---
2026-05-17 03:52:32 | DEBUG | strands_evaluation.instrumentation.agent_plugins | Model response #3 [stop_reason=tool_use]
2026-05-17 03:52:32 | DEBUG | strands_evaluation.instrumentation.agent_plugins | Model response #3 [role=assistant block=1 tool_use] search_value({"query": "58214 quiet storm tle csv input/space-track"}) [toolUseId=call_z5dR91QY2x07kYK5UpNpFYVM]
2026-05-17 03:52:32 | INFO | strands_evaluation.instrumentation.agent_plugins | Executing: search_value({"query": "58214 quiet storm tle csv input/space-track"})
2026-05-17 03:52:32 | DEBUG | strands_evaluation.instrumentation.agent_plugins | Tool result: {"results": [{"dataset_id": "kramabench-astronomy-easy-6", "s3_uri": "s3://sana-kramabench/datagov/kramabench-astronomy-easy-6/files/space-track/58214_storm.csv", "type": "csv"}, {"dataset_id": "kramabench-astronomy-easy-6", "s3_uri": "s3://sana-kramabench/datagov/kramabench-astronomy-easy-6/files/space-track/58214_quiet.csv", "type": "csv"}, {"dataset_id": "kramabench-astronomy-easy-3", "s3_uri": "s3://sana-kramabench/datagov/kramabench-astronomy-easy-3/files/STORM-AI/warmup/v2/Sat_Density/swarma-wu175-20150704_to_20150707.csv", "type": "csv"}, {"dataset_id": "kramabench-astronomy-easy-3", "s3_uri": "s3://sana-kramabench/datagov/kramabench-astronomy-easy-3/files/STORM-AI/warmup/v2/Sat_Density/swarma-wu232-20151222_to_20151225.csv", "type": "csv"}, {"dataset_id": "kramabench-astronomy-easy-3", "s3_uri": "s3://sana-kramabench/datagov/kramabench-astronomy-easy-3/files/STORM-AI/warmup/v2/Sat_Density/swarma-wu118-20150114_to_20150117.csv", "type": "csv"}], "count": 5, "query": "58214 quiet storm tle csv input/space-track"}
2026-05-17 03:52:32 | INFO | strands_evaluation.instrumentation.agent_plugins | 
--- Turn 4 (elapsed: 5.2s) ---
2026-05-17 03:52:34 | DEBUG | strands_evaluation.instrumentation.agent_plugins | Model response #4 [stop_reason=tool_use]
2026-05-17 03:52:34 | DEBUG | strands_evaluation.instrumentation.agent_plugins | Model response #4 [role=assistant block=1 tool_use] peek_file({"s3_uri": "s3://sana-kramabench/datagov/kramabench-astronomy-easy-6/files/space-track/58214_quiet.csv", "max_rows": 5}) [toolUseId=call_iFxvIikt6ndzmkxlTEEEiWvf]
2026-05-17 03:52:34 | DEBUG | strands_evaluation.instrumentation.agent_plugins | Model response #4 [role=assistant block=2 tool_use] peek_file({"s3_uri": "s3://sana-kramabench/datagov/kramabench-astronomy-easy-6/files/space-track/58214_storm.csv", "max_rows": 5}) [toolUseId=call_yZ81rLa51eTZW8bcPmeJZpX0]
2026-05-17 03:52:34 | INFO | strands_evaluation.instrumentation.agent_plugins | Executing: peek_file({"s3_uri": "s3://sana-kramabench/datagov/kramabench-astronomy-easy-6/files/space-track/58214_quiet.csv", "max_rows": 5})
2026-05-17 03:52:34 | DEBUG | strands_evaluation.instrumentation.agent_plugins | Tool result: {"dataset_id": "kramabench-astronomy-easy-6", "file_path": "files/space-track/58214_quiet.csv", "s3_uri": "s3://sana-kramabench/datagov/kramabench-astronomy-easy-6/files/space-track/58214_quiet.csv", "size_bytes": 5115, "family": "csv", "preview_text": "CCSDS_OMM_VERS,COMMENT,CREATION_DATE,ORIGINATOR,OBJECT_NAME,OBJECT_ID,CENTER_NAME,REF_FRAME,TIME_SYSTEM,MEAN_ELEMENT_THEORY,EPOCH,MEAN_MOTION,ECCENTRICITY,INCLINATION,RA_OF_ASC_NODE,ARG_OF_PERICENTER,MEAN_ANOMALY,EPHEMERIS_TYPE,CLASSIFICATION_TYPE,NORAD_CAT_ID,ELEMENT_SET_NO,REV_AT_EPOCH,BSTAR,MEAN_MOTION_DOT,MEAN_MOTION_DDOT,SEMIMAJOR_AXIS,PERIOD,APOAPSIS,PERIAPSIS,OBJECT_TYPE,RCS_SIZE,COUNTRY_CODE,LAUNCH_DATE,SITE,DECAY_DATE,FILE,GP_ID,TLE_LINE0,TLE_LINE1,TLE_LINE2\n\"2.0\",\"GENERATED VIA SPACE-TRACK.ORG API\",\"2024-05-01T20:24:06\",\"18 SPCS\",\"STARLINK-30805\",\"2023-170J\",\"EARTH\",\"TEME\",\"UTC\",\"SGP4\",\"2024-05-01T10:29:14.898336\",\"15.02550424\",\"0.00017220\",\"43.0038\",\"275.8684\",\"265.8547\",\"94.2099\",\"0\",\"U\",\"58214\",\"999\",\"2840\",\"0.00047506000000\",\"0.00006222\",\"0.0000000000000\",\"6937.172\",\"95.837\",\"560.232\",\"557.843\",\"PAYLOAD\",\"LARGE\",\"US\",\"2023-11-03\",\"AFETR\",\"\",\"4304190\",\"256232108\",\"0 STARLINK-30805\",\"1 58214U 23170J   24122.43697799  .00006222  00000-0  47506-3 0  9995\",\"2 58214  43.0038 275.8684 0001722 265.8547  94.2099 15.02550424 28404\"\n\"2.0\",\"GENERATED VIA SPACE-TRACK.ORG API\",\"2024-05-02T02:46:58\",\"18 SPCS\",\"STARLINK-30805\",\"2023-170J\",\"EARTH\",\"TEME\",\"UTC\",\"SGP4\",\"2024-05-01T16:52:09.772896\",\"15.02544581\",\"0.00014870\",\"43.0034\",\"274.4237\",\"269.1676\",\"90.8996\",\"0\",\"U\",\"58214\",\"999\",\"2844\",\"0.00027920000000\",\"0.00003571\",\"0.0000000000000\",\"6937.190\",\"95.837\",\"560.087\",\"558.024\",\"PAYLOAD\",\"LARGE\",\"US\",\"2023-11-03\",\"AFETR\",\"\",\"4304452\",\"256266706\",\"0 STARLINK-30805\",\"1 58214U 23170J   24122.70289089  .00003571  00000-0  27920-3 0  9996\",\"2 58214  43.0034 274.423...
2026-05-17 03:52:34 | INFO | strands_evaluation.instrumentation.agent_plugins | Executing: peek_file({"s3_uri": "s3://sana-kramabench/datagov/kramabench-astronomy-easy-6/files/space-track/58214_storm.csv", "max_rows": 5})
